{
    "links": {
        "self": "http://www.neowsapp.com/rest/v1/neo/3477944?api_key=iIulBulltgU6a56xZRHN4H3l9WmuAYTsLGpBGhQ2"
    },
    "id": "3477944",
    "neo_reference_id": "3477944",
    "name": "(2009 WM8)",
    "designation": "2009 WM8",
    "nasa_jpl_url": "http://ssd.jpl.nasa.gov/sbdb.cgi?sstr=3477944",
    "absolute_magnitude_h": 24.8,
    "estimated_diameter": {
        "kilometers": {
            "estimated_diameter_min": 0.0291443905,
            "estimated_diameter_max": 0.0651688382
        },
        "meters": {
            "estimated_diameter_min": 29.1443904535,
            "estimated_diameter_max": 65.1688382168
        },
        "miles": {
            "estimated_diameter_min": 0.018109479,
            "estimated_diameter_max": 0.0404940262
        },
        "feet": {
            "estimated_diameter_min": 95.6180819754,
            "estimated_diameter_max": 213.8085311752
        }
    },
    "is_potentially_hazardous_asteroid": false,
    "close_approach_data": [
        {
            "close_approach_date": "2009-11-14",
            "close_approach_date_full": "2009-Nov-14 11:11",
            "epoch_date_close_approach": 1258197060000,
            "relative_velocity": {
                "kilometers_per_second": "9.7568718213",
                "kilometers_per_hour": "35124.7385567503",
                "miles_per_hour": "21825.1465771097"
            },
            "miss_distance": {
                "astronomical": "0.045181465",
                "lunar": "17.575589885",
                "kilometers": "6759050.92747955",
                "miles": "4199879.49533579"
            },
            "orbiting_body": "Earth"
        }
    ],
    "orbital_data": {
        "orbit_id": "7",
        "orbit_determination_date": "2017-04-06 08:59:04",
        "first_observation_date": "2009-11-17",
        "last_observation_date": "2009-11-21",
        "data_arc_in_days": 4,
        "observations_used": 20,
        "orbit_uncertainty": "9",
        "minimum_orbit_intersection": ".0242796",
        "jupiter_tisserand_invariant": "3.893",
        "epoch_osculation": "2455154.5",
        "eccentricity": ".4424674756490445",
        "semi_major_axis": "1.815906964364557",
        "inclination": "14.02404025291772",
        "ascending_node_longitude": "237.2051420945178",
        "orbital_period": "893.7968468813524",
        "perihelion_distance": "1.012427193828652",
        "perihelion_argument": "181.5687114800136",
        "aphelion_distance": "2.619386734900462",
        "perihelion_time": "2455154.052122553922",
        "mean_anomaly": ".1803943269107139",
        "mean_motion": ".4027760908489627",
        "equinox": "J2000",
        "orbit_class": {
            "orbit_class_type": "APO",
            "orbit_class_description": "Near-Earth asteroid orbits which cross the Earth’s orbit similar to that of 1862 Apollo",
            "orbit_class_range": "a (semi-major axis) > 1.0 AU; q (perihelion) < 1.017 AU"
        }
    },
    "is_sentry_object": false
}